2022-023A               
1 51946U 22023A   26066.38437076  .00004303  00000+0  19500-3 0  9999
2 51946  63.4765 256.0240 0098533 341.4326  18.3199 15.18202647222269
STARLINK-33942          
1 63974U 25099Y   26068.29327960  .00029327  00000+0  10712-2 0  9999
2 63974  42.9980 175.1620 0001354 257.2430 102.8270 15.27573374 47310
